[{"OBJECT_NAME":"STARLINK-35847","OBJECT_ID":"2025-271E","EPOCH":"2026-03-09T11:49:00.027552","MEAN_MOTION":15.30195077,"ECCENTRICITY":0.00010077,"INCLINATION":53.1575,"RA_OF_ASC_NODE":141.0478,"ARG_OF_PERICENTER":81.261,"MEAN_ANOMALY":278.8505,"EPHEMERIS_TYPE":0,"CLASSIFICATION_TYPE":"U","NORAD_CAT_ID":66621,"ELEMENT_SET_NO":999,"REV_AT_EPOCH":1753,"BSTAR":0.00076012104,"MEAN_MOTION_DOT":0.00022217,"MEAN_MOTION_DDOT":0},{"OBJECT_NAME":"CERISE","OBJECT_ID":"1995-033B","EPOCH":"2026-03-09T23:11:27.589056","MEAN_MOTION":15.32047731,"ECCENTRICITY":0.00057118,"INCLINATION":98.325,"RA_OF_ASC_NODE":273.5192,"ARG_OF_PERICENTER":211.8754,"MEAN_ANOMALY":148.214,"EPHEMERIS_TYPE":0,"CLASSIFICATION_TYPE":"U","NORAD_CAT_ID":23606,"ELEMENT_SET_NO":999,"REV_AT_EPOCH":66468,"BSTAR":0.00062940675,"MEAN_MOTION_DOT":0.00019422,"MEAN_MOTION_DDOT":0}]
